{
  "norad_id": 28361,
  "name": "NAVSTAR 55 (USA 178)",
  "history": [
    {
      "epoch": "2026-03-25T14:50:08.692224",
      "apogee_km": 20609.09334080648,
      "perigee_km": 19757.238882769518,
      "latitude_deg": 49.07397800839487,
      "longitude_deg": 27.442991360090673,
      "semi_major_axis_km": 26561.303111788,
      "eccentricity": 0.01603563,
      "inclination_deg": 54.8028,
      "raan_deg": 90.0857,
      "arg_perigee_deg": 299.449,
      "mean_anomaly_deg": 235.1881,
      "mean_motion_rev_day": 2.00552784
    }
  ]
}