{"fetched_at":"2026-03-28T16:33:49Z","count":6709,"tles":[{"name":"NAVSTAR 55 (USA 178)","line1":"1 28361U 04023A   26084.61815616  .00000026  00000+0  00000+0 0  9999","line2":"2 28361  54.8028  90.0857 0160356 299.4490 235.1881  2.00552784159361","category":"GPS"}]}